[{"OBJECT_NAME":"BUFENG 1B","OBJECT_ID":"2019-032B","EPOCH":"2026-03-09T19:57:27.457920","MEAN_MOTION":15.25619535,"ECCENTRICITY":0.00242037,"INCLINATION":44.9701,"RA_OF_ASC_NODE":192.0248,"ARG_OF_PERICENTER":123.8847,"MEAN_ANOMALY":236.4342,"EPHEMERIS_TYPE":0,"CLASSIFICATION_TYPE":"U","NORAD_CAT_ID":44311,"ELEMENT_SET_NO":999,"REV_AT_EPOCH":37256,"BSTAR":0.00059375374,"MEAN_MOTION_DOT":0.00015236,"MEAN_MOTION_DDOT":0},{"OBJECT_NAME":"STARLINK-31187","OBJECT_ID":"2024-012D","EPOCH":"2026-03-09T23:07:19.946784","MEAN_MOTION":15.27574505,"ECCENTRICITY":0.00015093,"INCLINATION":43.003,"RA_OF_ASC_NODE":164.066,"ARG_OF_PERICENTER":274.5972,"MEAN_ANOMALY":85.4707,"EPHEMERIS_TYPE":0,"CLASSIFICATION_TYPE":"U","NORAD_CAT_ID":58790,"ELEMENT_SET_NO":999,"REV_AT_EPOCH":12127,"BSTAR":2.1422019e-5,"MEAN_MOTION_DOT":3.27e-6,"MEAN_MOTION_DDOT":0}]
